     2.100          NAVIGATION                              RINEX VERSION / TYPE
fic2rin                                 07/17/2010 00:05:27 PGM / RUN BY / DATE
                                                            END OF HEADER
27 10  7 16 12  0  0.0  .170658342540D-03  .352429196937D-11  .000000000000D+00
     .710000000000D+02  .408437500000D+02  .405588322953D-08  .298661701661D+01
     .230409204960D-05  .215307131875D-01  .914372503757D-05  .515361234856D+04
     .475200000000D+06  .474974513054D-06  .157884081237D+01  .838190317154D-07
     .978608271808D+00  .204406250000D+03 -.139733868166D+01 -.762567478282D-08
     .222866426138D-09  .100000000000D+01  .159200000000D+04  .000000000000D+00
     .240000000000D+01  .000000000000D+00 -.419095158577D-08  .710000000000D+02
     .468006000000D+06  .400000000000D+01
28 10  7 16 12  0  0.0 -.104042701423D-04  .125055521494D-11  .000000000000D+00
     .130000000000D+02 -.420937500000D+02  .443839916285D-08 -.223730970347D+01
    -.213645398617D-05  .160218810197D-01  .454671680927D-05  .515367073250D+04
     .475200000000D+06  .167638063431D-06  .271421355252D+01 -.124797224998D-06
     .971032290135D+00  .296250000000D+03 -.195093634602D+01 -.794783105907D-08
    -.478591363823D-10  .100000000000D+01  .159200000000D+04  .000000000000D+00
     .240000000000D+01  .000000000000D+00 -.107102096081D-07  .130000000000D+02
     .468006000000D+06  .400000000000D+01
29 10  7 16 12  0  0.0  .134938862175D-03  .284217094304D-11  .000000000000D+00
     .340000000000D+02 -.616875000000D+02  .429625038464D-08 -.179331919540D+00
    -.316090881824D-05  .292524974793D-02  .106431543827D-04  .515370978928D+04
     .475200000000D+06 -.195577740669D-06 -.252569489658D+01 -.949949026108D-07
     .960901297167D+00  .176406250000D+03 -.126364493760D+01 -.790282918456D-08
    -.185722021782D-09  .100000000000D+01  .159200000000D+04  .000000000000D+00
     .240000000000D+01  .000000000000D+00 -.884756445885D-08  .340000000000D+02
     .468006000000D+06  .400000000000D+01
30 10  7 16 12  0  0.0  .261018984020D-03  .329691829393D-11  .000000000000D+00
     .560000000000D+02 -.214687500000D+02  .483234414367D-08 -.181730630034D+01
    -.100024044514D-05  .124610998901D-01  .392459332943D-05  .515370844269D+04
     .475200000000D+06  .217929482460D-06  .263472665062D+01  .219792127609D-06
     .956867979358D+00  .300562500000D+03  .149249034211D+01 -.830570310873D-08
    -.700029159024D-10  .100000000000D+01  .159200000000D+04  .000000000000D+00
     .240000000000D+01  .000000000000D+00 -.791624188423D-08  .560000000000D+02
     .468006000000D+06  .400000000000D+01
31 10  7 16 12  0  0.0 -.241370871663D-04  .261479726760D-11  .000000000000D+00
     .140000000000D+02  .373750000000D+02  .414552982081D-08  .559419605798D+00
     .182725489140D-05  .734074681532D-02  .825151801109D-05  .515372773743D+04
     .475200000000D+06 -.689178705215D-07  .163463206942D+01 -.128522515297D-06
     .977116449394D+00  .233250000000D+03 -.105049391427D+01 -.807533637017D-08
     .195365280605D-09  .100000000000D+01  .159200000000D+04  .000000000000D+00
     .240000000000D+01  .000000000000D+00 -.130385160446D-07  .140000000000D+02
     .468006000000D+06  .400000000000D+01
32 10  7 16 12  0  0.0 -.391714274883D-04 -.864019966684D-11  .000000000000D+00
     .760000000000D+02 -.706250000000D+01  .505699635848D-08  .134515803516D+01
    -.489875674248D-06  .126357157715D-01  .420957803726D-05  .515368333435D+04
     .475200000000D+06  .294297933578D-06 -.377263581422D+00 -.167638063431D-06
     .958621127218D+00  .298468750000D+03 -.963330931994D+00 -.839499254228D-08
    -.162506769059D-09  .100000000000D+01  .159200000000D+04  .000000000000D+00
     .240000000000D+01  .000000000000D+00 -.325962901115D-08  .760000000000D+02
     .468006000000D+06  .400000000000D+01
18 10  7 16 11 59 44.0  .811447389424D-04  .238742359215D-11  .000000000000D+00
     .150000000000D+02  .123437500000D+02  .549987194889D-08 -.144684217636D+01
     .769272446632D-06  .116799295647D-01  .348687171936D-05  .515370384026D+04
     .475184000000D+06  .225380063057D-06 -.441571151702D+00  .353902578354D-07
     .936738143201D+00  .294687500000D+03 -.231998940652D+01 -.861893044162D-08
     .475019786481D-10  .100000000000D+01  .159200000000D+04  .000000000000D+00
     .240000000000D+01  .000000000000D+00 -.107102096081D-07  .150000000000D+02
     .469956000000D+06  .400000000000D+01
20 10  7 16 11 59 44.0  .533042475581D-04 -.454747350886D-12  .000000000000D+00
     .100000000000D+02  .812500000000D+01  .561666252797D-08 -.121736597767D+01
     .616535544395D-06  .413525814656D-02  .400468707085D-05  .515356900978D+04
     .475184000000D+06  .931322574615D-08 -.495514071739D+00  .428408384323D-07
     .936616917031D+00  .292812500000D+03  .131811687222D+01 -.876286500850D-08
    -.414302971667D-10  .100000000000D+01  .159200000000D+04  .000000000000D+00
     .240000000000D+01  .000000000000D+00 -.791624188423D-08  .100000000000D+02
     .471456000000D+06  .400000000000D+01
14 10  7 16 11 59 44.0  .683711841702D-04  .409272615798D-11  .000000000000D+00
     .140000000000D+02 -.262187500000D+02  .388337604391D-08  .293520223114D+01
    -.137835741043D-05  .525305559859D-02  .994466245174D-05  .515376520348D+04
     .475184000000D+06 -.428408384323D-07  .632196683244D+00 -.128522515297D-06
     .985969090416D+00  .199062500000D+03 -.214768834002D+01 -.768960601724D-08
    -.319656172105D-09  .100000000000D+01  .159200000000D+04  .000000000000D+00
     .240000000000D+01  .000000000000D+00 -.884756445885D-08  .140000000000D+02
     .472716000000D+06  .400000000000D+01
17 10  7 16 11 59 44.0  .162116717547D-03  .193267624127D-11  .000000000000D+00
     .170000000000D+02 -.523437500000D+02  .419267464173D-08 -.287437095066D+01
    -.267289578915D-05  .549368327484D-02  .114757567644D-04  .515363685608D+04
     .475184000000D+06  .353902578354D-07 -.253397359095D+01 -.428408384323D-07
     .960557208595D+00  .156406250000D+03 -.249922896765D+01 -.780389649218D-08
    -.167506977338D-09  .100000000000D+01  .159200000000D+04  .000000000000D+00
     .240000000000D+01  .000000000000D+00 -.102445483208D-07  .170000000000D+02
     .473256000000D+06  .400000000000D+01
21 10  7 16 11 59 44.0 -.743200071156D-04 -.261479726760D-11  .000000000000D+00
     .170000000000D+02  .634375000000D+02  .528414867743D-08 -.329671504759D+00
     .360421836376D-05  .167351409327D-01  .900216400623D-05  .515365516281D+04
     .475184000000D+06  .111758708954D-06 -.149831297404D+01  .219792127609D-06
     .932050296825D+00  .193500000000D+03 -.246044672995D+01 -.866643242027D-08
     .423231915022D-09  .100000000000D+01  .159200000000D+04  .000000000000D+00
     .240000000000D+01  .000000000000D+00 -.121071934700D-07  .170000000000D+02
     .473406000000D+06  .400000000000D+01
14 10  7 16 13 59 44.0  .684000551701D-04  .409272615798D-11  .000000000000D+00
     .150000000000D+02 -.380937500000D+02  .398909473324D-08 -.229792346558D+01
    -.191479921341D-05  .525513896719D-02  .945664942265D-05  .515376130486D+04
     .482384000000D+06  .912696123123D-07  .632140450136D+00 -.335276126862D-07
     .985967141809D+00  .209531250000D+03 -.214762514050D+01 -.773639368042D-08
    -.196793911542D-09  .100000000000D+01  .159200000000D+04  .000000000000D+00
     .240000000000D+01  .000000000000D+00 -.884756445885D-08  .150000000000D+02
     .475206000000D+06  .400000000000D+01
17 10  7 16 13 59 44.0  .162130687386D-03  .193267624127D-11  .000000000000D+00
     .200000000000D+02 -.472812500000D+02  .428160691754D-08 -.182443707801D+01
    -.244379043579D-05  .549434893765D-02  .110100954771D-04  .515363401985D+04
     .482384000000D+06  .465661287308D-07 -.253402950514D+01 -.113621354103D-06
     .960555875876D+00  .169281250000D+03 -.249896152867D+01 -.780603943859D-08
    -.220723479733D-09  .100000000000D+01  .159200000000D+04  .000000000000D+00
     .240000000000D+01  .000000000000D+00 -.102445483208D-07  .200000000000D+02
     .475206000000D+06  .400000000000D+01
18 10  7 16 13 59 44.0  .811615027487D-04  .238742359215D-11  .000000000000D+00
     .160000000000D+02  .175937500000D+02  .560987653102D-08 -.396737992244D+00
     .111572444439D-05  .116796974326D-01  .406801700592D-05  .515370237541D+04
     .482384000000D+06 -.335276126862D-07 -.441634065957D+00  .189989805222D-06
     .936736972866D+00  .290562500000D+03 -.231992299004D+01 -.892572893529D-08
     .678599694973D-11  .100000000000D+01  .159200000000D+04  .000000000000D+00
     .240000000000D+01  .000000000000D+00 -.107102096081D-07  .160000000000D+02
     .475206000000D+06  .400000000000D+01
20 10  7 16 13 59 44.0  .533009879291D-04 -.454747350886D-12  .000000000000D+00
     .110000000000D+02  .158437500000D+02  .550915804997D-08 -.166995734100D+00
     .627711415291D-06  .413616676815D-02  .410713255405D-05  .515357093620D+04
     .482384000000D+06  .931322574615D-08 -.495577413166D+00  .931322574615D-08
     .936616552765D+00  .292218750000D+03  .131799885423D+01 -.879429488911D-08
    -.260725145963D-10  .100000000000D+01  .159200000000D+04  .000000000000D+00
     .240000000000D+01  .000000000000D+00 -.791624188423D-08  .110000000000D+02
     .475206000000D+06  .400000000000D+01
21 10  7 16 13 59 44.0 -.743390992284D-04 -.261479726760D-11  .000000000000D+00
     .180000000000D+02  .690000000000D+02  .512342769704D-08  .720458545213D+00
     .376813113689D-05  .167361793574D-01  .972487032413D-05  .515365759468D+04
     .482384000000D+06 -.210478901863D-06 -.149837375244D+01  .234693288803D-06
     .932053224124D+00  .178812500000D+03 -.246037981754D+01 -.850999733269D-08
     .218937691062D-09  .100000000000D+01  .159200000000D+04  .000000000000D+00
     .240000000000D+01  .000000000000D+00 -.121071934700D-07  .180000000000D+02
     .475206000000D+06  .400000000000D+01
